[{"OBJECT_NAME":"HAWK-11B","OBJECT_ID":"2024-247C","EPOCH":"2026-03-09T10:44:06.809856","MEAN_MOTION":15.2884707,"ECCENTRICITY":0.00046902,"INCLINATION":45.0161,"RA_OF_ASC_NODE":115.761,"ARG_OF_PERICENTER":333.0326,"MEAN_ANOMALY":27.0314,"EPHEMERIS_TYPE":0,"CLASSIFICATION_TYPE":"U","NORAD_CAT_ID":62379,"ELEMENT_SET_NO":999,"REV_AT_EPOCH":6773,"BSTAR":0.00032841927,"MEAN_MOTION_DOT":9.093e-5,"MEAN_MOTION_DDOT":0},{"OBJECT_NAME":"STARLINK-34095","OBJECT_ID":"2025-092F","EPOCH":"2026-03-09T07:42:56.289312","MEAN_MOTION":15.27604081,"ECCENTRICITY":7.723e-5,"INCLINATION":42.9993,"RA_OF_ASC_NODE":175.0353,"ARG_OF_PERICENTER":247.0553,"MEAN_ANOMALY":113.0217,"EPHEMERIS_TYPE":0,"CLASSIFICATION_TYPE":"U","NORAD_CAT_ID":63809,"ELEMENT_SET_NO":999,"REV_AT_EPOCH":4855,"BSTAR":0.0010401232,"MEAN_MOTION_DOT":0.00028491,"MEAN_MOTION_DDOT":0}]
